OBJECT_NAME,OBJECT_ID,EPOCH,MEAN_MOTION,ECCENTRICITY,INCLINATION,RA_OF_ASC_NODE,ARG_OF_PERICENTER,MEAN_ANOMALY,EPHEMERIS_TYPE,CLASSIFICATION_TYPE,NORAD_CAT_ID,ELEMENT_SET_NO,REV_AT_EPOCH,BSTAR,MEAN_MOTION_DOT,MEAN_MOTION_DDOT
COSMOS 2509 (RODNIK-S 15),2015-050C,2026-07-12T21:16:05.704032,12.42884023,.001474,82.4877,62.2686,349.2477,10.8285,0,U,40922,999,49007,-.39504E-3,-.45E-6,0
LINGQIAO VIDEO A,2015-057B,2026-07-12T21:28:35.137632,14.77425966,.0016469,97.6628,187.4298,180.4647,179.6552,0,U,40959,999,57920,.95062E-4,.63E-5,0
LINGQIAO VIDEO B,2015-057C,2026-07-12T20:52:20.542080,14.77528935,.0016633,97.6594,188.5624,180.6739,179.4453,0,U,40960,999,57924,.63357E-5,-.3E-7,0
JILIN-1,2015-057D,2026-07-12T19:17:45.283776,14.78199296,.0016996,97.6518,191.9003,174.5745,185.5654,0,U,40961,999,57939,.6664E-4,.435E-5,0
FOX-1A (AO-85),2015-058D,2026-07-12T10:30:06.709824,14.91077888,.01321369,64.7723,200.5056,46.8579,314.3491,0,U,40967,999,11733,.15568718E-3,.1646E-4,0
SINOD-D 1,2015-058E,2026-07-12T09:56:45.843936,14.96071501,.01208123,64.7730,179.9000,43.2193,317.8323,0,U,40968,999,12043,.23567524E-3,.2893E-4,0
ELEKTRO-L 2,2015-074A,2026-07-12T10:01:14.661120,1.00272262,.00009352,6.7537,70.2096,216.0693,139.8337,0,U,41105,999,3875,0,-.122E-5,0
DAMPE,2015-078A,2026-07-12T20:34:45.083136,15.30850576,.0011861,97.4564,199.4513,354.1177,5.9922,0,U,41173,999,58847,.3608E-4,.999E-5,0
ORBCOMM FM110,2015-081D,2026-07-12T12:17:03.074496,14.58916062,.00034922,47.0008,241.6985,211.7770,148.2905,0,U,41182,999,56132,.72511838E-4,.172E-5,0
ORBCOMM FM112,2015-081F,2026-07-12T06:37:58.613376,14.58936102,.00038452,46.9979,151.6029,316.6291,43.4292,0,U,41184,999,56261,.11151057E-3,.356E-5,0
ORBCOMM FM113,2015-081G,2026-07-12T06:05:33.474624,14.58880263,.0002371,46.9996,152.0986,310.5234,49.5445,0,U,41185,999,56259,.65989E-4,.141E-5,0
ORBCOMM FM108,2015-081J,2026-07-12T15:02:37.195296,14.58908285,.0002797,47.0052,61.9155,312.7236,47.3414,0,U,41187,999,56379,.96107E-4,.283E-5,0
ORBCOMM FM117,2015-081K,2026-07-12T15:51:51.822144,14.58895460,.000322,47.0016,60.3815,319.6032,40.4614,0,U,41188,999,56384,.91198E-4,.26E-5,0
ORBCOMM FM116,2015-081L,2026-07-12T05:31:34.888224,14.58903801,.000145,47.0013,152.2072,221.9214,138.1561,0,U,41189,999,56259,.50766E-4,.69E-6,0
ZIYUAN 3-02 (ZY 3-02),2016-033A,2026-07-12T20:12:19.771200,15.21421166,.0013819,97.3832,269.1227,193.1718,166.9159,0,U,41556,999,56188,.14912E-3,.3286E-4,0
CARTOSAT-2C,2016-040A,2026-07-12T19:31:30.739008,15.19250907,.0009783,97.4482,253.4365,52.9040,307.3087,0,U,41599,999,55760,.53695E-4,.1064E-4,0
LAPAN-A3,2016-040E,2026-07-12T20:10:34.239648,15.33269418,.0008245,97.1497,189.1474,286.3965,73.6371,0,U,41603,999,55874,.67461E-4,.2095E-4,0
GAOFEN-3,2016-049A,2026-07-12T21:25:18.412608,14.42218121,.0001797,98.4016,201.2902,86.8391,273.3004,0,U,41727,999,52235,-.23354E-4,-.12E-5,0
CAS-2T & KS-1Q,2016-066G,2026-07-12T19:07:02.104032,14.44767499,.0342367,98.3814,269.2397,52.0250,311.1348,0,U,41847,999,50849,.97279E-4,.636E-5,0
YUNHAI-1 01,2016-068A,2026-07-12T20:51:31.687200,14.32720577,.0003359,98.5850,204.6365,355.9576,4.1581,0,U,41857,999,50550,.60208E-4,.12E-5,0
RESOURCESAT-2A,2016-074A,2026-07-12T19:56:17.395296,14.21608151,.0002532,98.7525,267.1243,33.8431,326.2907,0,U,41877,999,49794,.55314E-4,.77E-6,0
TANSAT,2016-081A,2026-07-12T21:08:09.854304,14.59969967,.0019314,98.5369,194.8980,227.6709,132.2854,0,U,41898,999,50837,.16644E-4,.29E-6,0
JILIN-1 03,2017-002B,2026-07-12T20:31:39.516672,15.42194634,.0007946,97.1945,200.5883,85.7814,274.4342,0,U,41914,999,52581,.23233E-3,.9895E-4,0
CARTOSAT-2D,2017-008A,2026-07-12T20:17:17.408832,15.19270547,.0005799,97.4099,252.6699,145.4996,214.6616,0,U,41948,999,52147,.80065E-4,.1621E-4,0
