COSMOS 2509 (RODNIK-S *)
1 40922U 15050C   26193.88617713 -.00000045  00000+0 -39504-3 0  9994
2 40922  82.4877  62.2686 0014740 349.2477  10.8285 12.42884023490075
LINGQIAO VIDEO A        
1 40959U 15057B   26193.89485113  .00000630  00000+0  95062-4 0  9999
2 40959  97.6628 187.4298 0016469 180.4647 179.6552 14.77425966579201
LINGQIAO VIDEO B        
1 40960U 15057C   26193.86968220 -.00000003  00000+0  63357-5 0  9991
2 40960  97.6594 188.5624 0016633 180.6739 179.4453 14.77528935579249
JILIN-1                 
1 40961U 15057D   26193.80399634  .00000435  00000+0  66640-4 0  9998
2 40961  97.6518 191.9003 0016996 174.5745 185.5654 14.78199296579398
FOX-1A (AO-85)          
1 40967U 15058D   26193.43757766  .00001646  00000+0  15569-3 0  9996
2 40967  64.7723 200.5056 0132136  46.8579 314.3491 14.91077888117333
SINOD-D 1               
1 40968U 15058E   26193.41441949  .00002893  00000+0  23568-3 0  9991
2 40968  64.7730 179.9000 0120812  43.2193 317.8323 14.96071501120439
ELEKTRO-L 2             
1 41105U 15074A   26193.41753080 -.00000122  00000+0  00000+0 0  9991
2 41105   6.7537  70.2096 0000935 216.0693 139.8337  1.00272262 38758
DAMPE                   
1 41173U 15078A   26193.85746624  .00000999  00000+0  36080-4 0  9997
2 41173  97.4564 199.4513 0011861 354.1177   5.9922 15.30850576588479
ORBCOMM FM110           
1 41182U 15081D   26193.51184114  .00000172  00000+0  72512-4 0  9997
2 41182  47.0008 241.6985 0003492 211.7770 148.2905 14.58916062561323
ORBCOMM FM112           
1 41184U 15081F   26193.27637284  .00000356  00000+0  11151-3 0  9998
2 41184  46.9979 151.6029 0003845 316.6291  43.4292 14.58936102562619
ORBCOMM FM113           
1 41185U 15081G   26193.25385966  .00000141  00000+0  65989-4 0  9995
2 41185  46.9996 152.0986 0002371 310.5234  49.5445 14.58880263562599
ORBCOMM FM108           
1 41187U 15081J   26193.62681939  .00000283  00000+0  96107-4 0  9990
2 41187  47.0052  61.9155 0002797 312.7236  47.3414 14.58908285563790
ORBCOMM FM117           
1 41188U 15081K   26193.66101646  .00000260  00000+0  91198-4 0  9997
2 41188  47.0016  60.3815 0003220 319.6032  40.4614 14.58895460563841
ORBCOMM FM116           
1 41189U 15081L   26193.23026491  .00000069  00000+0  50766-4 0  9998
2 41189  47.0013 152.2072 0001450 221.9214 138.1561 14.58903801562591
ZIYUAN 3-02 (ZY 3-02)   
1 41556U 16033A   26193.84189550  .00003286  00000+0  14912-3 0  9993
2 41556  97.3832 269.1227 0013819 193.1718 166.9159 15.21421166561880
CARTOSAT-2C             
1 41599U 16040A   26193.81355022  .00001064  00000+0  53695-4 0  9998
2 41599  97.4482 253.4365 0009783  52.9040 307.3087 15.19250907557609
LAPAN-A3                
1 41603U 16040E   26193.84067407  .00002095  00000+0  67461-4 0  9995
2 41603  97.1497 189.1474 0008245 286.3965  73.6371 15.33269418558743
GAOFEN-3                
1 41727U 16049A   26193.89257422 -.00000120  00000+0 -23354-4 0  9996
2 41727  98.4016 201.2902 0001797  86.8391 273.3004 14.42218121522358
CAS-2T & KS-1Q          
1 41847U 16066G   26193.79655213  .00000636  00000+0  97279-4 0  9994
2 41847  98.3814 269.2397 0342367  52.0250 311.1348 14.44767499508498
YUNHAI-1 01             
1 41857U 16068A   26193.86911675  .00000120  00000+0  60208-4 0  9992
2 41857  98.5850 204.6365 0003359 355.9576   4.1581 14.32720577505500
RESOURCESAT-2A          
1 41877U 16074A   26193.83075689  .00000077  00000+0  55314-4 0  9997
2 41877  98.7525 267.1243 0002532  33.8431 326.2907 14.21608151497945
TANSAT                  
1 41898U 16081A   26193.88066961  .00000029  00000+0  16644-4 0  9996
2 41898  98.5369 194.8980 0019314 227.6709 132.2854 14.59969967508375
JILIN-1 03              
1 41914U 17002B   26193.85531848  .00009895  00000+0  23233-3 0  9998
2 41914  97.1945 200.5883 0007946  85.7814 274.4342 15.42194634525817
CARTOSAT-2D             
1 41948U 17008A   26193.84534038  .00001621  00000+0  80065-4 0  9990
2 41948  97.4099 252.6699 0005799 145.4996 214.6616 15.19270547521479
